{"fetched_at":"2026-03-29T16:36:15Z","count":15609,"tles":[{"name":"STARLINK-31956","line1":"1 59930U 24106J   26087.71994588  .00002070  00000+0  84707-4 0  9991","line2":"2 59930  43.0008 225.0153 0000982 262.3993  97.6747 15.27581999103431","category":"Starlink"}]}